CCSDS_OMM_VERS = 2.0
CREATION_DATE  = 
ORIGINATOR     = 

OBJECT_NAME    = SL-3 R/B
OBJECT_ID      = 1982-079B
CENTER_NAME    = EARTH
REF_FRAME      = TEME
TIME_SYSTEM    = UTC
MEAN_ELEMENT_THEORY = SGP/SGP4

EPOCH          = 2026-04-02T22:40:26.363712
MEAN_MOTION    = 15.25128304
ECCENTRICITY   = .002551
INCLINATION    = 81.1477
RA_OF_ASC_NODE = 164.4367
ARG_OF_PERICENTER = 85.2753
MEAN_ANOMALY   = 275.1393

EPHEMERIS_TYPE = 0
CLASSIFICATION_TYPE = U
NORAD_CAT_ID   = 13403
ELEMENT_SET_NO = 999
REV_AT_EPOCH   = 38139
BSTAR          = .38692999E-3
MEAN_MOTION_DOT = .981E-4
MEAN_MOTION_DDOT = 0

CCSDS_OMM_VERS = 2.0
CREATION_DATE  = 
ORIGINATOR     = 

OBJECT_NAME    = SL-14 R/B
OBJECT_ID      = 1982-092B
CENTER_NAME    = EARTH
REF_FRAME      = TEME
TIME_SYSTEM    = UTC
MEAN_ELEMENT_THEORY = SGP/SGP4

EPOCH          = 2026-04-02T13:20:24.094752
MEAN_MOTION    = 14.86688188
ECCENTRICITY   = .00193249
INCLINATION    = 82.5652
RA_OF_ASC_NODE = 119.0716
ARG_OF_PERICENTER = 218.4841
MEAN_ANOMALY   = 302.8499

EPHEMERIS_TYPE = 0
CLASSIFICATION_TYPE = U
NORAD_CAT_ID   = 13553
ELEMENT_SET_NO = 999
REV_AT_EPOCH   = 33247
BSTAR          = .55681685E-4
MEAN_MOTION_DOT = .521E-5
MEAN_MOTION_DDOT = 0

CCSDS_OMM_VERS = 2.0
CREATION_DATE  = 
ORIGINATOR     = 

OBJECT_NAME    = SL-3 R/B
OBJECT_ID      = 1983-010B
CENTER_NAME    = EARTH
REF_FRAME      = TEME
TIME_SYSTEM    = UTC
MEAN_ELEMENT_THEORY = SGP/SGP4

EPOCH          = 2026-04-02T08:57:46.568160
MEAN_MOTION    = 15.47162585
ECCENTRICITY   = .0015577
INCLINATION    = 81.1042
RA_OF_ASC_NODE = 333.1963
ARG_OF_PERICENTER = 329.0766
MEAN_ANOMALY   = 30.9560

EPHEMERIS_TYPE = 0
CLASSIFICATION_TYPE = U
NORAD_CAT_ID   = 13819
ELEMENT_SET_NO = 999
REV_AT_EPOCH   = 36160
BSTAR          = .39192965E-3
MEAN_MOTION_DOT = .20039E-3
MEAN_MOTION_DDOT = 0

CCSDS_OMM_VERS = 2.0
CREATION_DATE  = 
ORIGINATOR     = 

OBJECT_NAME    = SL-3 R/B
OBJECT_ID      = 1983-075B
CENTER_NAME    = EARTH
REF_FRAME      = TEME
TIME_SYSTEM    = UTC
MEAN_ELEMENT_THEORY = SGP/SGP4

EPOCH          = 2026-04-02T22:39:23.572512
MEAN_MOTION    = 15.39017140
ECCENTRICITY   = .00227452
INCLINATION    = 97.6132
RA_OF_ASC_NODE = 98.4504
ARG_OF_PERICENTER = 139.2368
MEAN_ANOMALY   = 221.0584

EPHEMERIS_TYPE = 0
CLASSIFICATION_TYPE = U
NORAD_CAT_ID   = 14208
ELEMENT_SET_NO = 999
REV_AT_EPOCH   = 33388
BSTAR          = .50742735E-3
MEAN_MOTION_DOT = .19718E-3
MEAN_MOTION_DDOT = 0

CCSDS_OMM_VERS = 2.0
CREATION_DATE  = 
ORIGINATOR     = 

OBJECT_NAME    = COSMOS 1536
OBJECT_ID      = 1984-013A
CENTER_NAME    = EARTH
REF_FRAME      = TEME
TIME_SYSTEM    = UTC
MEAN_ELEMENT_THEORY = SGP/SGP4

EPOCH          = 2026-04-02T22:45:27.858240
MEAN_MOTION    = 15.24176651
ECCENTRICITY   = .00139208
INCLINATION    = 82.5417
RA_OF_ASC_NODE = 83.7229
ARG_OF_PERICENTER = 189.1829
MEAN_ANOMALY   = 170.9156

EPHEMERIS_TYPE = 0
CLASSIFICATION_TYPE = U
NORAD_CAT_ID   = 14699
ELEMENT_SET_NO = 999
REV_AT_EPOCH   = 27631
BSTAR          = .47373439E-3
MEAN_MOTION_DOT = .11599E-3
MEAN_MOTION_DDOT = 0

CCSDS_OMM_VERS = 2.0
CREATION_DATE  = 
ORIGINATOR     = 

OBJECT_NAME    = SL-14 R/B
OBJECT_ID      = 1984-027B
CENTER_NAME    = EARTH
REF_FRAME      = TEME
TIME_SYSTEM    = UTC
MEAN_ELEMENT_THEORY = SGP/SGP4

EPOCH          = 2026-04-02T20:48:35.988480
MEAN_MOTION    = 14.86004267
ECCENTRICITY   = .00165676
INCLINATION    = 82.5425
RA_OF_ASC_NODE = 222.3364
ARG_OF_PERICENTER = 251.9206
MEAN_ANOMALY   = 108.0206

EPHEMERIS_TYPE = 0
CLASSIFICATION_TYPE = U
NORAD_CAT_ID   = 14820
ELEMENT_SET_NO = 999
REV_AT_EPOCH   = 25122
BSTAR          = .91308263E-4
MEAN_MOTION_DOT = .823E-5
MEAN_MOTION_DDOT = 0

CCSDS_OMM_VERS = 2.0
CREATION_DATE  = 
ORIGINATOR     = 

OBJECT_NAME    = SL-8 R/B
OBJECT_ID      = 1985-006B
CENTER_NAME    = EARTH
REF_FRAME      = TEME
TIME_SYSTEM    = UTC
MEAN_ELEMENT_THEORY = SGP/SGP4

EPOCH          = 2026-04-02T14:00:15.420384
MEAN_MOTION    = 14.37800653
ECCENTRICITY   = .00175073
INCLINATION    = 74.0459
RA_OF_ASC_NODE = 217.1796
ARG_OF_PERICENTER = 127.8951
MEAN_ANOMALY   = 243.1417

EPHEMERIS_TYPE = 0
CLASSIFICATION_TYPE = U
NORAD_CAT_ID   = 15483
ELEMENT_SET_NO = 999
REV_AT_EPOCH   = 15746
BSTAR          = .12549106E-3
MEAN_MOTION_DOT = .353E-5
MEAN_MOTION_DDOT = 0

CCSDS_OMM_VERS = 2.0
CREATION_DATE  = 
ORIGINATOR     = 

OBJECT_NAME    = SL-12 R/B(2)
OBJECT_ID      = 1985-042D
CENTER_NAME    = EARTH
REF_FRAME      = TEME
TIME_SYSTEM    = UTC
MEAN_ELEMENT_THEORY = SGP/SGP4

EPOCH          = 2026-04-02T23:08:20.654016
MEAN_MOTION    = 14.21989797
ECCENTRICITY   = .00328311
INCLINATION    = 71.1098
RA_OF_ASC_NODE = 36.4414
ARG_OF_PERICENTER = 87.8203
MEAN_ANOMALY   = 337.0270

EPHEMERIS_TYPE = 0
CLASSIFICATION_TYPE = U
NORAD_CAT_ID   = 15772
ELEMENT_SET_NO = 999
REV_AT_EPOCH   = 11784
BSTAR          = .11879348E-3
MEAN_MOTION_DOT = .217E-5
MEAN_MOTION_DDOT = 0

CCSDS_OMM_VERS = 2.0
CREATION_DATE  = 
ORIGINATOR     = 

OBJECT_NAME    = SL-14 R/B
OBJECT_ID      = 1985-069B
CENTER_NAME    = EARTH
REF_FRAME      = TEME
TIME_SYSTEM    = UTC
MEAN_ELEMENT_THEORY = SGP/SGP4

EPOCH          = 2026-04-02T17:02:12.475104
MEAN_MOTION    = 14.86459233
ECCENTRICITY   = .00202613
INCLINATION    = 82.5305
RA_OF_ASC_NODE = 2.3530
ARG_OF_PERICENTER = 111.0615
MEAN_ANOMALY   = 249.2771

EPHEMERIS_TYPE = 0
CLASSIFICATION_TYPE = U
NORAD_CAT_ID   = 15945
ELEMENT_SET_NO = 999
REV_AT_EPOCH   = 17640
BSTAR          = .60978294E-4
MEAN_MOTION_DOT = .565E-5
MEAN_MOTION_DDOT = 0

CCSDS_OMM_VERS = 2.0
CREATION_DATE  = 
ORIGINATOR     = 

OBJECT_NAME    = SL-16 R/B
OBJECT_ID      = 1985-097B
CENTER_NAME    = EARTH
REF_FRAME      = TEME
TIME_SYSTEM    = UTC
MEAN_ELEMENT_THEORY = SGP/SGP4

EPOCH          = 2026-04-02T17:38:37.596768
MEAN_MOTION    = 14.16602807
ECCENTRICITY   = .00092866
INCLINATION    = 71.0008
RA_OF_ASC_NODE = 89.9287
ARG_OF_PERICENTER = 231.2950
MEAN_ANOMALY   = 305.6276

EPHEMERIS_TYPE = 0
CLASSIFICATION_TYPE = U
NORAD_CAT_ID   = 16182
ELEMENT_SET_NO = 999
REV_AT_EPOCH   = 9063
BSTAR          = -.72439782E-4
MEAN_MOTION_DOT = -.193E-5
MEAN_MOTION_DDOT = 0

CCSDS_OMM_VERS = 2.0
CREATION_DATE  = 
ORIGINATOR     = 

OBJECT_NAME    = SL-14 R/B
OBJECT_ID      = 1986-006B
CENTER_NAME    = EARTH
REF_FRAME      = TEME
TIME_SYSTEM    = UTC
MEAN_ELEMENT_THEORY = SGP/SGP4

EPOCH          = 2026-04-02T21:11:01.344480
MEAN_MOTION    = 14.86858662
ECCENTRICITY   = .0076193
INCLINATION    = 82.5259
RA_OF_ASC_NODE = 236.9632
ARG_OF_PERICENTER = 191.4257
MEAN_ANOMALY   = 168.5235

EPHEMERIS_TYPE = 0
CLASSIFICATION_TYPE = U
NORAD_CAT_ID   = 16496
ELEMENT_SET_NO = 999
REV_AT_EPOCH   = 15280
BSTAR          = .14914705E-3
MEAN_MOTION_DOT = .1429E-4
MEAN_MOTION_DDOT = 0

CCSDS_OMM_VERS = 2.0
CREATION_DATE  = 
ORIGINATOR     = 

OBJECT_NAME    = COSMOS 1743
OBJECT_ID      = 1986-034A
CENTER_NAME    = EARTH
REF_FRAME      = TEME
TIME_SYSTEM    = UTC
MEAN_ELEMENT_THEORY = SGP/SGP4

EPOCH          = 2026-04-02T21:30:24.459552
MEAN_MOTION    = 15.60726194
ECCENTRICITY   = .00053385
INCLINATION    = 82.5319
RA_OF_ASC_NODE = 48.3860
ARG_OF_PERICENTER = 158.1570
MEAN_ANOMALY   = 201.9916

EPHEMERIS_TYPE = 0
CLASSIFICATION_TYPE = U
NORAD_CAT_ID   = 16719
ELEMENT_SET_NO = 999
REV_AT_EPOCH   = 18402
BSTAR          = .93476661E-3
MEAN_MOTION_DOT = .78267E-3
MEAN_MOTION_DDOT = 0

