SL-3 R/B                
1 13403U 82079B   26092.94474958  .00009810  00000+0  38693-3 0  9995
2 13403  81.1477 164.4367 0025510  85.2753 275.1393 15.25128304381390
SL-14 R/B               
1 13553U 82092B   26092.55583443  .00000521  00000+0  55682-4 0  9991
2 13553  82.5652 119.0716 0019324 218.4841 302.8499 14.86688188332471
SL-3 R/B                
1 13819U 83010B   26092.37345565  .00020039  00000+0  39193-3 0  9992
2 13819  81.1042 333.1963 0015577 329.0766  30.9560 15.47162585361609
SL-3 R/B                
1 14208U 83075B   26092.94402283  .00019718  00000+0  50743-3 0  9996
2 14208  97.6132  98.4504 0022745 139.2368 221.0584 15.39017140333885
COSMOS 1536             
1 14699U 84013A   26092.94823910  .00011599  00000+0  47373-3 0  9991
2 14699  82.5417  83.7229 0013920 189.1829 170.9156 15.24176651276318
SL-14 R/B               
1 14820U 84027B   26092.86708320  .00000823  00000+0  91308-4 0  9996
2 14820  82.5425 222.3364 0016567 251.9206 108.0206 14.86004267251222
SL-8 R/B                
1 15483U 85006B   26092.58351181  .00000353  00000+0  12549-3 0  9995
2 15483  74.0459 217.1796 0017507 127.8951 243.1417 14.37800653157460
SL-12 R/B(2)            
1 15772U 85042D   26092.96412794  .00000217  00000+0  11879-3 0  9990
2 15772  71.1098  36.4414 0032831  87.8203 337.0270 14.21989797117847
SL-14 R/B               
1 15945U 85069B   26092.70986661  .00000565  00000+0  60978-4 0  9993
2 15945  82.5305   2.3530 0020261 111.0615 249.2771 14.86459233176403
SL-16 R/B               
1 16182U 85097B   26092.73515737 -.00000193  00000+0 -72440-4 0  9999
2 16182  71.0008  89.9287 0009286 231.2950 305.6276 14.16602807 90638
SL-14 R/B               
1 16496U 86006B   26092.88265445  .00001429  00000+0  14915-3 0  9995
2 16496  82.5259 236.9632 0076193 191.4257 168.5235 14.86858662152805
COSMOS 1743             
1 16719U 86034A   26092.89611643  .00078267  00000+0  93477-3 0  9994
2 16719  82.5319  48.3860 0005338 158.1570 201.9916 15.60726194184023
